FLOCK 4G-8              
1 62613U 25009E   26068.72381419  .00013559  00000+0  50438-3 0  9996
2 62613  97.4045 151.2834 0003050 315.2538  44.8455 15.27623414 63721
STARLINK-35482          
1 66346U 25253AD  26068.40870062  .00025865  00000+0  94572-3 0  9996
2 66346  42.9996 213.9038 0001455 156.1143 203.9777 15.27595146 20202
